{
  "type": "FeatureCollection",
  "features": [
    {
      "type": "Feature",
      "properties": {
        "norad_id": 34350,
        "name": "IRIDIUM 33 DEB",
        "group": "iridium-33-debris",
        "lat": -72.19782743300495,
        "lon": -7.848015988049177,
        "alt_km": 761.5165642768652,
        "timestamp": "2025-12-10T16:57:12.023181+00:00",
        "meta_object_name": "IRIDIUM 33 DEB",
        "meta_object_id": "1997-051ES",
        "meta_epoch": "2025-12-10T12:52:02.616960",
        "meta_mean_motion": 14.45379057,
        "meta_eccentricity": 0.0022625,
        "meta_inclination": 86.3276,
        "meta_ra_of_asc_node": 3.7635,
        "meta_arg_of_pericenter": 142.0341,
        "meta_mean_anomaly": 339.995,
        "meta_ephemeris_type": 0,
        "meta_classification_type": "U",
        "meta_norad_cat_id": 34350,
        "meta_element_set_no": 999,
        "meta_rev_at_epoch": 88261,
        "meta_bstar": 0.00047544,
        "meta_mean_motion_dot": 1.696e-05,
        "meta_mean_motion_ddot": 0,
        "tle_line1": "1 34350U 97051ES  25344.53614140  .00001696  00000+0  47544-3 0  9997",
        "tle_line2": "2 34350  86.3276   3.7635 0022625 142.0341 339.9950 14.45379057882613"
      },
      "geometry": {
        "type": "Point",
        "coordinates": [
          -7.848015988049177,
          -72.19782743300495
        ]
      }
    },
    {
      "type": "Feature",
      "properties": {
        "norad_id": 34366,
        "name": "IRIDIUM 33 DEB",
        "group": "iridium-33-debris",
        "lat": -12.254697285648465,
        "lon": -129.01228509248136,
        "alt_km": 706.0809149708566,
        "timestamp": "2025-12-10T16:57:12.023192+00:00",
        "meta_object_name": "IRIDIUM 33 DEB",
        "meta_object_id": "1997-051FJ",
        "meta_epoch": "2025-12-10T04:47:12.333120",
        "meta_mean_motion": 14.54021911,
        "meta_eccentricity": 0.0022308,
        "meta_inclination": 86.3691,
        "meta_ra_of_asc_node": 50.4179,
        "meta_arg_of_pericenter": 147.6537,
        "meta_mean_anomaly": 272.451,
        "meta_ephemeris_type": 0,
        "meta_classification_type": "U",
        "meta_norad_cat_id": 34366,
        "meta_element_set_no": 999,
        "meta_rev_at_epoch": 88145,
        "meta_bstar": 0.0016468,
        "meta_mean_motion_dot": 6.988e-05,
        "meta_mean_motion_ddot": 0,
        "tle_line1": "1 34366U 97051FJ  25344.19944830  .00006988  00000+0  16468-2 0  9997",
        "tle_line2": "2 34366  86.3691  50.4179 0022308 147.6537 272.4510 14.54021911881456"
      },
      "geometry": {
        "type": "Point",
        "coordinates": [
          -129.01228509248136,
          -12.254697285648465
        ]
      }
    },
    {
      "type": "Feature",
      "properties": {
        "norad_id": 34375,
        "name": "IRIDIUM 33 DEB",
        "group": "iridium-33-debris",
        "lat": 9.54394449594669,
        "lon": -175.88119539178797,
        "alt_km": 874.2861321061137,
        "timestamp": "2025-12-10T16:57:12.023202+00:00",
        "meta_object_name": "IRIDIUM 33 DEB",
        "meta_object_id": "1997-051FT",
        "meta_epoch": "2025-12-10T07:35:27.786048",
        "meta_mean_motion": 14.17985501,
        "meta_eccentricity": 0.0103124,
        "meta_inclination": 86.4328,
        "meta_ra_of_asc_node": 183.6751,
        "meta_arg_of_pericenter": 134.3251,
        "meta_mean_anomaly": 46.2443,
        "meta_ephemeris_type": 0,
        "meta_classification_type": "U",
        "meta_norad_cat_id": 34375,
        "meta_element_set_no": 999,
        "meta_rev_at_epoch": 86677,
        "meta_bstar": 0.00060254,
        "meta_mean_motion_dot": 1.319e-05,
        "meta_mean_motion_ddot": 0,
        "tle_line1": "1 34375U 97051FT  25344.31629382  .00001319  00000+0  60254-3 0  9999",
        "tle_line2": "2 34375  86.4328 183.6751 0103124 134.3251  46.2443 14.17985501866774"
      },
      "geometry": {
        "type": "Point",
        "coordinates": [
          -175.88119539178797,
          9.54394449594669
        ]
      }
    },
    {
      "type": "Feature",
      "properties": {
        "norad_id": 34376,
        "name": "IRIDIUM 33 DEB",
        "group": "iridium-33-debris",
        "lat": 56.81608546305083,
        "lon": 13.134073435250581,
        "alt_km": 688.1193966282826,
        "timestamp": "2025-12-10T16:57:12.023213+00:00",
        "meta_object_name": "IRIDIUM 33 DEB",
        "meta_object_id": "1997-051FU",
        "meta_epoch": "2025-12-10T11:45:58.662720",
        "meta_mean_motion": 14.62514696,
        "meta_eccentricity": 0.0026927,
        "meta_inclination": 86.2989,
        "meta_ra_of_asc_node": 7.5509,
        "meta_arg_of_pericenter": 174.2059,
        "meta_mean_anomaly": 185.9469,
        "meta_ephemeris_type": 0,
        "meta_classification_type": "U",
        "meta_norad_cat_id": 34376,
        "meta_element_set_no": 999,
        "meta_rev_at_epoch": 87974,
        "meta_bstar": 0.0021548,
        "meta_mean_motion_dot": 0.0001101,
        "meta_mean_motion_ddot": 0,
        "tle_line1": "1 34376U 97051FU  25344.49026230  .00011010  00000+0  21548-2 0  9993",
        "tle_line2": "2 34376  86.2989   7.5509 0026927 174.2059 185.9469 14.62514696879748"
      },
      "geometry": {
        "type": "Point",
        "coordinates": [
          13.134073435250581,
          56.81608546305083
        ]
      }
    },
    {
      "type": "Feature",
      "properties": {
        "norad_id": 34486,
        "name": "IRIDIUM 33 DEB",
        "group": "iridium-33-debris",
        "lat": 31.060328933506344,
        "lon": 15.139745780250045,
        "alt_km": 578.4832500307475,
        "timestamp": "2025-12-10T16:57:12.023224+00:00",
        "meta_object_name": "IRIDIUM 33 DEB",
        "meta_object_id": "1997-051GB",
        "meta_epoch": "2025-12-10T12:34:52.075776",
        "meta_mean_motion": 14.95631974,
        "meta_eccentricity": 0.001349,
        "meta_inclination": 86.3938,
        "meta_ra_of_asc_node": 13.0469,
        "meta_arg_of_pericenter": 119.9859,
        "meta_mean_anomaly": 11.1663,
        "meta_ephemeris_type": 0,
        "meta_classification_type": "U",
        "meta_norad_cat_id": 34486,
        "meta_element_set_no": 999,
        "meta_rev_at_epoch": 88953,
        "meta_bstar": 0.003193,
        "meta_mean_motion_dot": 0.00035691,
        "meta_mean_motion_ddot": 0,
        "tle_line1": "1 34486U 97051GB  25344.52421384  .00035691  00000+0  31930-2 0  9995",
        "tle_line2": "2 34486  86.3938  13.0469 0013490 119.9859  11.1663 14.95631974889536"
      },
      "geometry": {
        "type": "Point",
        "coordinates": [
          15.139745780250045,
          31.060328933506344
        ]
      }
    },
    {
      "type": "Feature",
      "properties": {
        "norad_id": 34487,
        "name": "IRIDIUM 33 DEB",
        "group": "iridium-33-debris",
        "lat": 69.8845731097694,
        "lon": 23.30772903194164,
        "alt_km": 731.1446883554845,
        "timestamp": "2025-12-10T16:57:12.023234+00:00",
        "meta_object_name": "IRIDIUM 33 DEB",
        "meta_object_id": "1997-051GC",
        "meta_epoch": "2025-12-10T01:47:16.386144",
        "meta_mean_motion": 14.4321077,
        "meta_eccentricity": 0.00325626,
        "meta_inclination": 86.3436,
        "meta_ra_of_asc_node": 13.5248,
        "meta_arg_of_pericenter": 136.7627,
        "meta_mean_anomaly": 252.8644,
        "meta_ephemeris_type": 0,
        "meta_classification_type": "U",
        "meta_norad_cat_id": 34487,
        "meta_element_set_no": 999,
        "meta_rev_at_epoch": 88210,
        "meta_bstar": 0.00027422216,
        "meta_mean_motion_dot": 9.48e-06,
        "meta_mean_motion_ddot": 0,
        "tle_line1": "1 34487U 97051GC  25344.07449521  .00000948  00000+0  27422-3 0  9998",
        "tle_line2": "2 34487  86.3436  13.5248 0032562 136.7627 252.8644 14.43210770882100"
      },
      "geometry": {
        "type": "Point",
        "coordinates": [
          23.30772903194164,
          69.8845731097694
        ]
      }
    },
    {
      "type": "Feature",
      "properties": {
        "norad_id": 34488,
        "name": "IRIDIUM 33 DEB",
        "group": "iridium-33-debris",
        "lat": 48.33447191640177,
        "lon": 122.6775236367831,
        "alt_km": 473.6522641921438,
        "timestamp": "2025-12-10T16:57:12.023245+00:00",
        "meta_object_name": "IRIDIUM 33 DEB",
        "meta_object_id": "1997-051GD",
        "meta_epoch": "2025-12-10T08:31:31.497024",
        "meta_mean_motion": 15.28485636,
        "meta_eccentricity": 0.0013917,
        "meta_inclination": 86.3244,
        "meta_ra_of_asc_node": 306.9938,
        "meta_arg_of_pericenter": 55.6103,
        "meta_mean_anomaly": 304.6458,
        "meta_ephemeris_type": 0,
        "meta_classification_type": "U",
        "meta_norad_cat_id": 34488,
        "meta_element_set_no": 999,
        "meta_rev_at_epoch": 89203,
        "meta_bstar": 0.0064311,
        "meta_mean_motion_dot": 0.00182742,
        "meta_mean_motion_ddot": 0,
        "tle_line1": "1 34488U 97051GD  25344.35522566  .00182742  00000+0  64311-2 0  9991",
        "tle_line2": "2 34488  86.3244 306.9938 0013917  55.6103 304.6458 15.28485636892035"
      },
      "geometry": {
        "type": "Point",
        "coordinates": [
          122.6775236367831,
          48.33447191640177
        ]
      }
    }
  ]
}